{
  "type": "FeatureCollection",
  "features": [
    {
      "type": "Feature",
      "properties": {
        "norad_id": 35445,
        "name": "COSMOS 2251 DEB",
        "group": "cosmos-2251-debris",
        "lat": 39.4245315889029,
        "lon": 93.11643545561077,
        "alt_km": 751.755212193988,
        "timestamp": "2025-12-19T16:54:44.659439+00:00",
        "meta_object_name": "COSMOS 2251 DEB",
        "meta_object_id": "1993-036AKP",
        "meta_epoch": "2025-12-18T05:44:09.269952",
        "meta_mean_motion": 14.59267708,
        "meta_eccentricity": 0.0143868,
        "meta_inclination": 74.0369,
        "meta_ra_of_asc_node": 289.5205,
        "meta_arg_of_pericenter": 15.1683,
        "meta_mean_anomaly": 345.3726,
        "meta_ephemeris_type": 0,
        "meta_classification_type": "U",
        "meta_norad_cat_id": 35445,
        "meta_element_set_no": 999,
        "meta_rev_at_epoch": 87409,
        "meta_bstar": 0.0018624247,
        "meta_mean_motion_dot": 0.00010147,
        "meta_mean_motion_ddot": 0,
        "tle_line1": "1 35445U 93036AKP 25352.23899618  .00010147  00000+0  18624-2 0  9990",
        "tle_line2": "2 35445  74.0369 289.5205 0143868  15.1683 345.3726 14.59267708874094"
      },
      "geometry": {
        "type": "Point",
        "coordinates": [
          93.11643545561077,
          39.4245315889029
        ]
      }
    },
    {
      "type": "Feature",
      "properties": {
        "norad_id": 35446,
        "name": "COSMOS 2251 DEB",
        "group": "cosmos-2251-debris",
        "lat": 54.841718134469545,
        "lon": -31.0254673077619,
        "alt_km": 652.2147011108873,
        "timestamp": "2025-12-19T16:54:44.659450+00:00",
        "meta_object_name": "COSMOS 2251 DEB",
        "meta_object_id": "1993-036AKQ",
        "meta_epoch": "2025-12-18T05:59:12.750432",
        "meta_mean_motion": 14.54634793,
        "meta_eccentricity": 0.00745391,
        "meta_inclination": 74.0467,
        "meta_ra_of_asc_node": 307.7629,
        "meta_arg_of_pericenter": 64.3886,
        "meta_mean_anomaly": 296.4954,
        "meta_ephemeris_type": 0,
        "meta_classification_type": "U",
        "meta_norad_cat_id": 35446,
        "meta_element_set_no": 999,
        "meta_rev_at_epoch": 88088,
        "meta_bstar": 9.8850262e-05,
        "meta_mean_motion_dot": 4.08e-06,
        "meta_mean_motion_ddot": 0,
        "tle_line1": "1 35446U 93036AKQ 25352.24945313  .00000408  00000+0  98850-4 0  9996",
        "tle_line2": "2 35446  74.0467 307.7629 0074539  64.3886 296.4954 14.54634793880886"
      },
      "geometry": {
        "type": "Point",
        "coordinates": [
          -31.0254673077619,
          54.841718134469545
        ]
      }
    },
    {
      "type": "Feature",
      "properties": {
        "norad_id": 35448,
        "name": "COSMOS 2251 DEB",
        "group": "cosmos-2251-debris",
        "lat": -73.85722377608121,
        "lon": -17.720360281870974,
        "alt_km": 710.0381007877495,
        "timestamp": "2025-12-19T16:54:44.659460+00:00",
        "meta_object_name": "COSMOS 2251 DEB",
        "meta_object_id": "1993-036AKS",
        "meta_epoch": "2025-12-17T15:48:08.057376",
        "meta_mean_motion": 14.54306329,
        "meta_eccentricity": 0.00121573,
        "meta_inclination": 73.9037,
        "meta_ra_of_asc_node": 80.133,
        "meta_arg_of_pericenter": 263.1799,
        "meta_mean_anomaly": 96.798,
        "meta_ephemeris_type": 0,
        "meta_classification_type": "U",
        "meta_norad_cat_id": 35448,
        "meta_element_set_no": 999,
        "meta_rev_at_epoch": 87406,
        "meta_bstar": 0.00080210225,
        "meta_mean_motion_dot": 3.379e-05,
        "meta_mean_motion_ddot": 0,
        "tle_line1": "1 35448U 93036AKS 25351.65842659  .00003379  00000+0  80210-3 0  9991",
        "tle_line2": "2 35448  73.9037  80.1330 0012157 263.1799  96.7980 14.54306329874064"
      },
      "geometry": {
        "type": "Point",
        "coordinates": [
          -17.720360281870974,
          -73.85722377608121
        ]
      }
    },
    {
      "type": "Feature",
      "properties": {
        "norad_id": 35451,
        "name": "COSMOS 2251 DEB",
        "group": "cosmos-2251-debris",
        "lat": 3.8930751689583243,
        "lon": -93.50898509654962,
        "alt_km": 485.34256495000045,
        "timestamp": "2025-12-19T16:54:44.659472+00:00",
        "meta_object_name": "COSMOS 2251 DEB",
        "meta_object_id": "1993-036AKV",
        "meta_epoch": "2025-12-18T16:42:12.696192",
        "meta_mean_motion": 15.36180792,
        "meta_eccentricity": 0.00414288,
        "meta_inclination": 73.9324,
        "meta_ra_of_asc_node": 89.795,
        "meta_arg_of_pericenter": 334.996,
        "meta_mean_anomaly": 24.9237,
        "meta_ephemeris_type": 0,
        "meta_classification_type": "U",
        "meta_norad_cat_id": 35451,
        "meta_element_set_no": 999,
        "meta_rev_at_epoch": 67497,
        "meta_bstar": 0.0011339762,
        "meta_mean_motion_dot": 0.00041322,
        "meta_mean_motion_ddot": 0,
        "tle_line1": "1 35451U 93036AKV 25352.69598028  .00041322  00000+0  11340-2 0  9995",
        "tle_line2": "2 35451  73.9324  89.7950 0041428 334.9960  24.9237 15.36180792674971"
      },
      "geometry": {
        "type": "Point",
        "coordinates": [
          -93.50898509654962,
          3.8930751689583243
        ]
      }
    },
    {
      "type": "Feature",
      "properties": {
        "norad_id": 35453,
        "name": "COSMOS 2251 DEB",
        "group": "cosmos-2251-debris",
        "lat": -73.43190873868897,
        "lon": -67.02086929232854,
        "alt_km": 805.4215229936208,
        "timestamp": "2025-12-19T16:54:44.659482+00:00",
        "meta_object_name": "COSMOS 2251 DEB",
        "meta_object_id": "1993-036AKX",
        "meta_epoch": "2025-12-16T19:11:22.117056",
        "meta_mean_motion": 14.38003213,
        "meta_eccentricity": 0.00669431,
        "meta_inclination": 74.0096,
        "meta_ra_of_asc_node": 12.8823,
        "meta_arg_of_pericenter": 145.8531,
        "meta_mean_anomaly": 214.6957,
        "meta_ephemeris_type": 0,
        "meta_classification_type": "U",
        "meta_norad_cat_id": 35453,
        "meta_element_set_no": 999,
        "meta_rev_at_epoch": 86277,
        "meta_bstar": 0.00051941791,
        "meta_mean_motion_dot": 1.586e-05,
        "meta_mean_motion_ddot": 0,
        "tle_line1": "1 35453U 93036AKX 25350.79956154  .00001586  00000+0  51942-3 0  9995",
        "tle_line2": "2 35453  74.0096  12.8823 0066943 145.8531 214.6957 14.38003213862776"
      },
      "geometry": {
        "type": "Point",
        "coordinates": [
          -67.02086929232854,
          -73.43190873868897
        ]
      }
    },
    {
      "type": "Feature",
      "properties": {
        "norad_id": 35455,
        "name": "COSMOS 2251 DEB",
        "group": "cosmos-2251-debris",
        "lat": 50.952933392707145,
        "lon": -57.59823760233578,
        "alt_km": 661.0569780111045,
        "timestamp": "2025-12-19T16:54:44.659493+00:00",
        "meta_object_name": "COSMOS 2251 DEB",
        "meta_object_id": "1993-036AKZ",
        "meta_epoch": "2025-12-19T05:04:27.935616",
        "meta_mean_motion": 14.49478057,
        "meta_eccentricity": 0.00995683,
        "meta_inclination": 74.0286,
        "meta_ra_of_asc_node": 282.6521,
        "meta_arg_of_pericenter": 24.6393,
        "meta_mean_anomaly": 335.9475,
        "meta_ephemeris_type": 0,
        "meta_classification_type": "U",
        "meta_norad_cat_id": 35455,
        "meta_element_set_no": 999,
        "meta_rev_at_epoch": 86637,
        "meta_bstar": 0.0010888195,
        "meta_mean_motion_dot": 4.417e-05,
        "meta_mean_motion_ddot": 0,
        "tle_line1": "1 35455U 93036AKZ 25353.21143444  .00004417  00000+0  10888-2 0  9996",
        "tle_line2": "2 35455  74.0286 282.6521 0099568  24.6393 335.9475 14.49478057866376"
      },
      "geometry": {
        "type": "Point",
        "coordinates": [
          -57.59823760233578,
          50.952933392707145
        ]
      }
    },
    {
      "type": "Feature",
      "properties": {
        "norad_id": 35456,
        "name": "COSMOS 2251 DEB",
        "group": "cosmos-2251-debris",
        "lat": -15.272606308890687,
        "lon": -71.57904617499241,
        "alt_km": 687.4029225091599,
        "timestamp": "2025-12-19T16:54:44.659503+00:00",
        "meta_object_name": "COSMOS 2251 DEB",
        "meta_object_id": "1993-036ALA",
        "meta_epoch": "2025-12-16T14:29:43.540224",
        "meta_mean_motion": 14.69499444,
        "meta_eccentricity": 0.00664454,
        "meta_inclination": 73.9504,
        "meta_ra_of_asc_node": 109.9489,
        "meta_arg_of_pericenter": 318.8739,
        "meta_mean_anomaly": 40.7432,
        "meta_ephemeris_type": 0,
        "meta_classification_type": "U",
        "meta_norad_cat_id": 35456,
        "meta_element_set_no": 999,
        "meta_rev_at_epoch": 65932,
        "meta_bstar": 0.0012425086,
        "meta_mean_motion_dot": 7.595e-05,
        "meta_mean_motion_ddot": 0,
        "tle_line1": "1 35456U 93036ALA 25350.60397616  .00007595  00000+0  12425-2 0  9998",
        "tle_line2": "2 35456  73.9504 109.9489 0066445 318.8739  40.7432 14.69499444659326"
      },
      "geometry": {
        "type": "Point",
        "coordinates": [
          -71.57904617499241,
          -15.272606308890687
        ]
      }
    }
  ]
}